OBJECT_NAME,OBJECT_ID,EPOCH,MEAN_MOTION,ECCENTRICITY,INCLINATION,RA_OF_ASC_NODE,ARG_OF_PERICENTER,MEAN_ANOMALY,EPHEMERIS_TYPE,CLASSIFICATION_TYPE,NORAD_CAT_ID,ELEMENT_SET_NO,REV_AT_EPOCH,BSTAR,MEAN_MOTION_DOT,MEAN_MOTION_DDOT
STARLINK-35257,2025-253N,2026-06-05T02:01:16.773888,15.27566989,.0001484,43.0010,78.6613,282.6586,77.4100,0,U,66331,999,3361,.1001E-2,.27376E-3,0
STARLINK-35322,2025-253P,2026-06-05T02:16:03.554112,15.27558603,.0004023,43.0019,78.7446,293.2553,66.7875,0,U,66332,999,3361,.83696E-3,.22829E-3,0
STARLINK-35400,2025-253Q,2026-06-01T06:45:34.336224,15.27564380,.00012437,42.9967,100.8703,281.6416,78.4296,0,U,66333,999,3302,.33538589E-3,.8974E-4,0
STARLINK-35407,2025-253R,2026-06-05T02:04:57.912960,15.27610850,.0001344,43.0004,78.6903,258.1734,101.8966,0,U,66334,999,3361,.65854E-3,.17921E-3,0
STARLINK-35417,2025-253S,2026-06-04T18:45:38.293344,15.27575881,.0001628,43.0033,80.6966,301.1199,58.9493,0,U,66335,999,3356,.75873E-3,.20672E-3,0
STARLINK-35404,2025-253T,2026-06-04T04:25:16.498272,15.27629886,.00016868,43.0025,83.9467,260.5306,99.5355,0,U,66336,999,3347,.84230646E-3,.23024E-3,0
STARLINK-34783,2025-253U,2026-06-04T21:02:21.691680,15.27635563,.0002653,43.0009,80.5535,313.3176,46.7454,0,U,66337,999,3357,.73452E-3,.2004E-3,0
STARLINK-35477,2025-253V,2026-06-01T23:02:06.293184,15.27591641,.00007207,42.9988,96.4974,102.6381,257.4551,0,U,66338,999,3313,.75280196E-3,.20518E-3,0
STARLINK-35443,2025-253W,2026-06-05T00:56:42.626400,15.27651095,.0001558,43.0026,79.1861,288.1063,71.9618,0,U,66339,999,3360,.97275E-3,.26661E-3,0
STARLINK-35218,2025-253X,2026-06-05T01:30:00.933984,15.27640384,.000107,43.0010,79.3597,262.7491,97.3239,0,U,66340,999,3360,.13218E-2,.36357E-3,0
STARLINK-35522,2025-253Y,2026-06-05T01:15:12.927744,15.27606913,.0001072,43.0020,79.2868,285.5117,74.5616,0,U,66341,999,3360,.71582E-3,.19504E-3,0
STARLINK-35535,2025-253Z,2026-06-02T22:54:48.191616,15.27633191,.0001987,43.0038,91.0620,259.6355,100.4272,0,U,66342,999,3328,.12694E-2,.3489E-3,0
STARLINK-35467,2025-253AA,2026-06-05T01:24:28.077120,15.27586363,.0000539,43.0006,79.3353,262.1960,97.8830,0,U,66343,999,3360,.74491E-3,.20297E-3,0
STARLINK-35511,2025-253AB,2026-06-05T01:52:02.243136,15.27644411,.0000814,43.0007,78.6097,257.2861,102.7900,0,U,66344,999,3361,.10012E-2,.27444E-3,0
STARLINK-35440,2025-253AC,2026-06-04T22:01:20.559648,15.27682696,.0002149,43.0036,79.9900,241.9400,118.1234,0,U,66345,999,3358,.10887E-2,.29912E-3,0
STARLINK-35482,2025-253AD,2026-06-05T02:12:21.558816,15.27636106,.0001486,43.0034,78.7191,272.9507,87.1174,0,U,66346,999,3361,.77404E-3,.21135E-3,0
STARLINK-35438,2025-253AE,2026-06-05T01:59:24.021024,15.27620678,.0001514,43.0004,78.6476,268.6005,91.4673,0,U,66347,999,3361,.76569E-3,.20894E-3,0
STARLINK-35849,2025-254A,2026-06-04T05:50:26.726496,15.30195372,.00011788,53.1565,190.6943,50.8634,309.2472,0,U,66348,999,3338,.2754653E-3,.7807E-4,0
STARLINK-35848,2025-254B,2026-06-04T00:00:02.000160,15.31683014,.00013011,53.1593,191.5385,76.8310,165.0292,0,U,66349,999,591,.18758033E-2,.58268E-3,0
STARLINK-35829,2025-254C,2026-06-05T04:21:59.965056,15.31137937,.0004559,53.1590,185.8813,158.1884,201.9312,0,U,66350,999,3237,.61411E-3,.18412E-3,0
STARLINK-35828,2025-254D,2026-06-04T05:46:15.737088,15.31690114,.00020074,53.1565,189.9615,141.8209,218.2935,0,U,66351,999,3223,.57203659E-3,.17422E-3,0
STARLINK-35850,2025-254E,2026-06-04T06:10:02.209728,15.30195285,.00014637,53.1566,190.0607,120.0824,240.0322,0,U,66352,999,3223,.5308479E-3,.15393E-3,0
STARLINK-35869,2025-254F,2026-06-04T06:00:55.121472,15.30203696,.00011101,53.1561,190.0202,49.9225,310.1873,0,U,66353,999,3223,.36957639E-3,.10604E-3,0
STARLINK-35895,2025-254G,2026-06-04T05:53:28.990752,15.30220298,.00011831,53.1564,190.7106,84.2031,275.9104,0,U,66354,999,3222,.74625815E-3,.21822E-3,0
STARLINK-35861,2025-254H,2026-06-04T05:44:21.767712,15.30215087,.00012837,53.1572,190.6636,84.7943,275.3204,0,U,66355,999,3222,.79247853E-3,.23196E-3,0
STARLINK-35851,2025-254J,2026-06-04T05:39:48.502656,15.30210311,.00014796,53.1581,190.6503,77.7589,282.3578,0,U,66356,999,3222,.64322176E-3,.18745E-3,0
STARLINK-35817,2025-254K,2026-06-03T13:45:35.269632,15.30200390,.0000855,53.1564,193.6144,183.5486,176.5508,0,U,66357,999,3212,.6783E-3,.19784E-3,0
STARLINK-35807,2025-254L,2026-06-04T06:19:51.001536,15.31726143,.00011484,53.1553,190.1076,60.9363,299.1754,0,U,66358,999,3223,.54674578E-3,.16653E-3,0
STARLINK-35805,2025-254M,2026-06-03T07:37:20.983008,15.31724318,.00016821,53.1567,194.1561,143.8671,216.2445,0,U,66359,999,3322,.8111321E-3,.24909E-3,0
STARLINK-35823,2025-254N,2026-06-04T13:58:46.787808,15.30181953,.00012471,53.1562,188.5335,68.9879,291.1255,0,U,66360,999,3228,.83796438E-3,.24527E-3,0
