[ {"name": "STARLINK-35257", "line1": "1 66331U 25253N   26156.08422192  .00027376  00000+0  10010-2 0  9992", "line2": "2 66331  43.0010  78.6613 0001484 282.6586  77.4100 15.27566989 33614"}, {"name": "STARLINK-35322", "line1": "1 66332U 25253P   26156.09448558  .00022829  00000+0  83696-3 0  9997", "line2": "2 66332  43.0019  78.7446 0004023 293.2553  66.7875 15.27558603 33617"}, {"name": "STARLINK-35400", "line1": "1 66333U 25253Q   26152.28164741  .00008974  00000+0  33539-3 0  9990", "line2": "2 66333  42.9967 100.8703 0001243 281.6416  78.4296 15.27564380 33022"}, {"name": "STARLINK-35407", "line1": "1 66334U 25253R   26156.08678140  .00017921  00000+0  65854-3 0  9993", "line2": "2 66334  43.0004  78.6903 0001344 258.1734 101.8966 15.27610850 33619"}, {"name": "STARLINK-35417", "line1": "1 66335U 25253S   26155.78169321  .00020672  00000+0  75873-3 0  9995", "line2": "2 66335  43.0033  80.6966 0001628 301.1199  58.9493 15.27575881 33568"}, {"name": "STARLINK-35404", "line1": "1 66336U 25253T   26155.18421873  .00023024  00000+0  84231-3 0  9995", "line2": "2 66336  43.0025  83.9467 0001686 260.5306  99.5355 15.27629886 33477"}, {"name": "STARLINK-34783", "line1": "1 66337U 25253U   26155.87663995  .00020040  00000+0  73452-3 0  9993", "line2": "2 66337  43.0009  80.5535 0002653 313.3176  46.7454 15.27635563 33570"}, {"name": "STARLINK-35477", "line1": "1 66338U 25253V   26152.95979506  .00020518  00000+0  75280-3 0  9999", "line2": "2 66338  42.9988  96.4974 0000720 102.6381 257.4551 15.27591641 33137"}, {"name": "STARLINK-35443", "line1": "1 66339U 25253W   26156.03938225  .00026661  00000+0  97275-3 0  9999", "line2": "2 66339  43.0026  79.1861 0001558 288.1063  71.9618 15.27651095 33608"}, {"name": "STARLINK-35218", "line1": "1 66340U 25253X   26156.06251081  .00036357  00000+0  13218-2 0  9999", "line2": "2 66340  43.0010  79.3597 0001070 262.7491  97.3239 15.27640384 33603"}, {"name": "STARLINK-35522", "line1": "1 66341U 25253Y   26156.05223296  .00019504  00000+0  71582-3 0  9990", "line2": "2 66341  43.0020  79.2868 0001072 285.5117  74.5616 15.27606913 33601"}, {"name": "STARLINK-35535", "line1": "1 66342U 25253Z   26153.95472444  .00034890  00000+0  12694-2 0  9991", "line2": "2 66342  43.0038  91.0620 0001987 259.6355 100.4272 15.27633191 33289"}, {"name": "STARLINK-35467", "line1": "1 66343U 25253AA  26156.05865830  .00020297  00000+0  74491-3 0  9991", "line2": "2 66343  43.0006  79.3353 0000539 262.1960  97.8830 15.27586363 33603"}, {"name": "STARLINK-35511", "line1": "1 66344U 25253AB  26156.07780374  .00027444  00000+0  10012-2 0  9992", "line2": "2 66344  43.0007  78.6097 0000814 257.2861 102.7900 15.27644411 33617"}, {"name": "STARLINK-35440", "line1": "1 66345U 25253AC  26155.91759907  .00029912  00000+0  10887-2 0  9995", "line2": "2 66345  43.0036  79.9900 0002149 241.9400 118.1234 15.27682696 33583"}, {"name": "STARLINK-35482", "line1": "1 66346U 25253AD  26156.09191619  .00021135  00000+0  77404-3 0  9994", "line2": "2 66346  43.0034  78.7191 0001486 272.9507  87.1174 15.27636106 33613"}, {"name": "STARLINK-35438", "line1": "1 66347U 25253AE  26156.08291691  .00020894  00000+0  76569-3 0  9997", "line2": "2 66347  43.0004  78.6476 0001514 268.6005  91.4673 15.27620678 33612"}, {"name": "STARLINK-35849", "line1": "1 66348U 25254A   26155.24336489  .00007807  00000+0  27547-3 0  9992", "line2": "2 66348  53.1565 190.6943 0001178  50.8634 309.2472 15.30195372 33389"}, {"name": "STARLINK-35848", "line1": "1 66349U 25254B   26155.00002315  .00058268  00000+0  18758-2 0  9995", "line2": "2 66349  53.1593 191.5385 0001301  76.8310 165.0292 15.31683014  5910"}, {"name": "STARLINK-35829", "line1": "1 66350U 25254C   26156.18194404  .00018412  00000+0  61411-3 0  9990", "line2": "2 66350  53.1590 185.8813 0004559 158.1884 201.9312 15.31137937 32370"}, {"name": "STARLINK-35828", "line1": "1 66351U 25254D   26155.24045992  .00017422  00000+0  57204-3 0  9999", "line2": "2 66351  53.1565 189.9615 0002007 141.8209 218.2935 15.31690114 32232"}, {"name": "STARLINK-35850", "line1": "1 66352U 25254E   26155.25697002  .00015393  00000+0  53085-3 0  9994", "line2": "2 66352  53.1566 190.0607 0001463 120.0824 240.0322 15.30195285 32236"}, {"name": "STARLINK-35869", "line1": "1 66353U 25254F   26155.25063798  .00010604  00000+0  36958-3 0  9994", "line2": "2 66353  53.1561 190.0202 0001110  49.9225 310.1873 15.30203696 32232"}, {"name": "STARLINK-35895", "line1": "1 66354U 25254G   26155.24547443  .00021822  00000+0  74626-3 0  9996", "line2": "2 66354  53.1564 190.7106 0001183  84.2031 275.9104 15.30220298 32224"}, {"name": "STARLINK-35861", "line1": "1 66355U 25254H   26155.23914083  .00023196  00000+0  79248-3 0  9995", "line2": "2 66355  53.1572 190.6636 0001283  84.7943 275.3204 15.30215087 32224"}, {"name": "STARLINK-35851", "line1": "1 66356U 25254J   26155.23597804  .00018745  00000+0  64322-3 0  9995", "line2": "2 66356  53.1581 190.6503 0001479  77.7589 282.3578 15.30210311 32220"}, {"name": "STARLINK-35817", "line1": "1 66357U 25254K   26154.57332488  .00019784  00000+0  67830-3 0  9998", "line2": "2 66357  53.1564 193.6144 0000855 183.5486 176.5508 15.30200390 32127"}, {"name": "STARLINK-35807", "line1": "1 66358U 25254L   26155.26378474  .00016653  00000+0  54675-3 0  9996", "line2": "2 66358  53.1553 190.1076 0001148  60.9363 299.1754 15.31726143 32237"}, {"name": "STARLINK-35805", "line1": "1 66359U 25254M   26154.31760397  .00024909  00000+0  81113-3 0  9991", "line2": "2 66359  53.1567 194.1561 0001682 143.8671 216.2445 15.31724318 33221"}, {"name": "STARLINK-35823", "line1": "1 66360U 25254N   26155.58248597  .00024527  00000+0  83796-3 0  9991", "line2": "2 66360  53.1562 188.5335 0001247  68.9879 291.1255 15.30181953 32285"}]